STARLINK-32287          
1 60358U 24138D   26062.02993031  .00000476  00000+0  28188-4 0  9990
2 60358  53.1607 340.8514 0000980  97.9391 262.1721 15.30191117 89609
STARLINK-32290          
1 60359U 24138E   26062.75050423  .00000944  00000+0  43994-4 0  9992
2 60359  53.1613 337.5266 0001224  96.8730 263.2410 15.30189117 70740
STARLINK-32275          
1 60360U 24138F   26062.72095230 -.00000318  00000+0  13819-5 0  9996
2 60360  53.1615 337.3344 0000956 112.1562 247.9540 15.30193275 89715
STARLINK-32227          
1 60361U 24138G   26062.74417478  .00011643  00000+0  40542-3 0  9994
2 60361  53.1630 337.4692 0001642 129.6520 230.4626 15.30133586 89722
STARLINK-32256          
1 60362U 24138H   26062.74944592  .00001174  00000+0  51783-4 0  9995
2 60362  53.1611 337.5083 0001185  91.2377 268.8760 15.30189803 89708
STARLINK-32267          
1 60363U 24138J   26062.15106220 -.00000596  00000+0 -80207-5 0  9992
2 60363  53.1610 340.1781 0001013 103.1126 256.9988 15.30193876 89624
STARLINK-32270          
1 60364U 24138K   26062.14261712  .00000087  00000+0  15065-4 0  9992
2 60364  53.1613 340.1283 0000940  99.5877 260.5230 15.30196456 89521
STARLINK-32188          
1 60365U 24138L   26062.72410763 -.00004021  00000+0 -12364-3 0  9991
2 60365  53.1620 337.3562 0000980  98.3879 261.7233 15.30221936 89710
STARLINK-32230          
1 60366U 24138M   26062.14894997 -.00000055  00000+0  10275-4 0  9995
2 60366  53.1615 340.1659 0001105 108.2703 251.8418 15.30196008 89627
STARLINK-32243          
1 60367U 24138N   26062.00777225 -.00000178  00000+0  61275-5 0  9998
2 60367  53.1621 340.7027 0001099  89.0214 271.0913 15.30190965 89603
STARLINK-32271          
1 60368U 24138P   26062.74628149  .00002294  00000+0  89602-4 0  9993
2 60368  53.1616 337.4949 0001123 124.5515 235.5591 15.30185818 89711
STARLINK-32220          
1 60370U 24138R   26062.14472448  .00001242  00000+0  54045-4 0  9994
2 60370  53.1611 340.1375 0000950 119.3018 240.8077 15.30199570 89628
STARLINK-32263          
1 60371U 24138S   26062.16994321  .00001559  00000+0  64800-4 0  9997
2 60371  53.1614 339.5875 0001533  87.9875 272.1301 15.30186131 89535
STARLINK-32268          
1 60372U 24138T   26062.74733611  .00006157  00000+0  22009-3 0  9998
2 60372  53.1606 337.5033 0001167 109.0445 251.0682 15.30161827 89716
STARLINK-32223          
1 60373U 24138U   26062.20477090 -.00000163  00000+0  66050-5 0  9994
2 60373  53.1623 339.8005 0000976 107.3746 252.7362 15.30192741 89534
STARLINK-32180          
1 60374U 24138V   26062.14157055  .00000873  00000+0  41626-4 0  9992
2 60374  53.1612 340.1141 0001056 134.4592 225.6496 15.30167365 89620
