[{"OBJECT_NAME":"STARLINK-32287","OBJECT_ID":"2024-138D","EPOCH":"2026-03-03T00:43:05.978784","MEAN_MOTION":15.30191117,"ECCENTRICITY":9.8e-5,"INCLINATION":53.1607,"RA_OF_ASC_NODE":340.8514,"ARG_OF_PERICENTER":97.9391,"MEAN_ANOMALY":262.1721,"EPHEMERIS_TYPE":0,"CLASSIFICATION_TYPE":"U","NORAD_CAT_ID":60358,"ELEMENT_SET_NO":999,"REV_AT_EPOCH":8960,"BSTAR":2.8188035e-5,"MEAN_MOTION_DOT":4.76e-6,"MEAN_MOTION_DDOT":0},{"OBJECT_NAME":"STARLINK-32290","OBJECT_ID":"2024-138E","EPOCH":"2026-03-03T18:00:43.565472","MEAN_MOTION":15.30189117,"ECCENTRICITY":0.0001224,"INCLINATION":53.1613,"RA_OF_ASC_NODE":337.5266,"ARG_OF_PERICENTER":96.873,"MEAN_ANOMALY":263.241,"EPHEMERIS_TYPE":0,"CLASSIFICATION_TYPE":"U","NORAD_CAT_ID":60359,"ELEMENT_SET_NO":999,"REV_AT_EPOCH":7074,"BSTAR":4.3994e-5,"MEAN_MOTION_DOT":9.44e-6,"MEAN_MOTION_DDOT":0},{"OBJECT_NAME":"STARLINK-32275","OBJECT_ID":"2024-138F","EPOCH":"2026-03-03T17:18:10.278720","MEAN_MOTION":15.30193275,"ECCENTRICITY":9.56e-5,"INCLINATION":53.1615,"RA_OF_ASC_NODE":337.3344,"ARG_OF_PERICENTER":112.1562,"MEAN_ANOMALY":247.954,"EPHEMERIS_TYPE":0,"CLASSIFICATION_TYPE":"U","NORAD_CAT_ID":60360,"ELEMENT_SET_NO":999,"REV_AT_EPOCH":8971,"BSTAR":1.3819e-6,"MEAN_MOTION_DOT":-3.18e-6,"MEAN_MOTION_DDOT":0},{"OBJECT_NAME":"STARLINK-32227","OBJECT_ID":"2024-138G","EPOCH":"2026-03-03T17:51:36.700992","MEAN_MOTION":15.30133586,"ECCENTRICITY":0.0001642,"INCLINATION":53.163,"RA_OF_ASC_NODE":337.4692,"ARG_OF_PERICENTER":129.652,"MEAN_ANOMALY":230.4626,"EPHEMERIS_TYPE":0,"CLASSIFICATION_TYPE":"U","NORAD_CAT_ID":60361,"ELEMENT_SET_NO":999,"REV_AT_EPOCH":8972,"BSTAR":0.00040542,"MEAN_MOTION_DOT":0.00011643,"MEAN_MOTION_DDOT":0},{"OBJECT_NAME":"STARLINK-32256","OBJECT_ID":"2024-138H","EPOCH":"2026-03-03T17:59:12.127488","MEAN_MOTION":15.30189803,"ECCENTRICITY":0.0001185,"INCLINATION":53.1611,"RA_OF_ASC_NODE":337.5083,"ARG_OF_PERICENTER":91.2377,"MEAN_ANOMALY":268.876,"EPHEMERIS_TYPE":0,"CLASSIFICATION_TYPE":"U","NORAD_CAT_ID":60362,"ELEMENT_SET_NO":999,"REV_AT_EPOCH":8970,"BSTAR":5.1783e-5,"MEAN_MOTION_DOT":1.174e-5,"MEAN_MOTION_DDOT":0},{"OBJECT_NAME":"STARLINK-32267","OBJECT_ID":"2024-138J","EPOCH":"2026-03-03T03:37:31.774080","MEAN_MOTION":15.30193876,"ECCENTRICITY":0.00010133,"INCLINATION":53.161,"RA_OF_ASC_NODE":340.1781,"ARG_OF_PERICENTER":103.1126,"MEAN_ANOMALY":256.9988,"EPHEMERIS_TYPE":0,"CLASSIFICATION_TYPE":"U","NORAD_CAT_ID":60363,"ELEMENT_SET_NO":999,"REV_AT_EPOCH":8962,"BSTAR":-8.020748e-6,"MEAN_MOTION_DOT":-5.96e-6,"MEAN_MOTION_DDOT":0},{"OBJECT_NAME":"STARLINK-32270","OBJECT_ID":"2024-138K","EPOCH":"2026-03-03T03:25:22.119168","MEAN_MOTION":15.30196456,"ECCENTRICITY":9.4e-5,"INCLINATION":53.1613,"RA_OF_ASC_NODE":340.1283,"ARG_OF_PERICENTER":99.5877,"MEAN_ANOMALY":260.523,"EPHEMERIS_TYPE":0,"CLASSIFICATION_TYPE":"U","NORAD_CAT_ID":60364,"ELEMENT_SET_NO":999,"REV_AT_EPOCH":8952,"BSTAR":1.5065007e-5,"MEAN_MOTION_DOT":8.7e-7,"MEAN_MOTION_DDOT":0},{"OBJECT_NAME":"STARLINK-32188","OBJECT_ID":"2024-138L","EPOCH":"2026-03-03T17:22:42.899232","MEAN_MOTION":15.30221936,"ECCENTRICITY":9.8e-5,"INCLINATION":53.162,"RA_OF_ASC_NODE":337.3562,"ARG_OF_PERICENTER":98.3879,"MEAN_ANOMALY":261.7233,"EPHEMERIS_TYPE":0,"CLASSIFICATION_TYPE":"U","NORAD_CAT_ID":60365,"ELEMENT_SET_NO":999,"REV_AT_EPOCH":8971,"BSTAR":-0.00012364,"MEAN_MOTION_DOT":-4.021e-5,"MEAN_MOTION_DDOT":0},{"OBJECT_NAME":"STARLINK-32230","OBJECT_ID":"2024-138M","EPOCH":"2026-03-03T03:34:29.277408","MEAN_MOTION":15.30196008,"ECCENTRICITY":0.00011055,"INCLINATION":53.1615,"RA_OF_ASC_NODE":340.1659,"ARG_OF_PERICENTER":108.2703,"MEAN_ANOMALY":251.8418,"EPHEMERIS_TYPE":0,"CLASSIFICATION_TYPE":"U","NORAD_CAT_ID":60366,"ELEMENT_SET_NO":999,"REV_AT_EPOCH":8962,"BSTAR":1.0275052e-5,"MEAN_MOTION_DOT":-5.5e-7,"MEAN_MOTION_DDOT":0},{"OBJECT_NAME":"STARLINK-32243","OBJECT_ID":"2024-138N","EPOCH":"2026-03-03T00:11:11.522400","MEAN_MOTION":15.30190965,"ECCENTRICITY":0.00010997,"INCLINATION":53.1621,"RA_OF_ASC_NODE":340.7027,"ARG_OF_PERICENTER":89.0214,"MEAN_ANOMALY":271.0913,"EPHEMERIS_TYPE":0,"CLASSIFICATION_TYPE":"U","NORAD_CAT_ID":60367,"ELEMENT_SET_NO":999,"REV_AT_EPOCH":8960,"BSTAR":6.1275e-6,"MEAN_MOTION_DOT":-1.78e-6,"MEAN_MOTION_DDOT":0},{"OBJECT_NAME":"STARLINK-32271","OBJECT_ID":"2024-138P","EPOCH":"2026-03-03T17:54:38.720736","MEAN_MOTION":15.30185818,"ECCENTRICITY":0.0001123,"INCLINATION":53.1616,"RA_OF_ASC_NODE":337.4949,"ARG_OF_PERICENTER":124.5515,"MEAN_ANOMALY":235.5591,"EPHEMERIS_TYPE":0,"CLASSIFICATION_TYPE":"U","NORAD_CAT_ID":60368,"ELEMENT_SET_NO":999,"REV_AT_EPOCH":8971,"BSTAR":8.9602e-5,"MEAN_MOTION_DOT":2.294e-5,"MEAN_MOTION_DDOT":0},{"OBJECT_NAME":"STARLINK-32220","OBJECT_ID":"2024-138R","EPOCH":"2026-03-03T03:28:24.195072","MEAN_MOTION":15.3019957,"ECCENTRICITY":9.502e-5,"INCLINATION":53.1611,"RA_OF_ASC_NODE":340.1375,"ARG_OF_PERICENTER":119.3018,"MEAN_ANOMALY":240.8077,"EPHEMERIS_TYPE":0,"CLASSIFICATION_TYPE":"U","NORAD_CAT_ID":60370,"ELEMENT_SET_NO":999,"REV_AT_EPOCH":8962,"BSTAR":5.4045213e-5,"MEAN_MOTION_DOT":1.242e-5,"MEAN_MOTION_DDOT":0},{"OBJECT_NAME":"STARLINK-32263","OBJECT_ID":"2024-138S","EPOCH":"2026-03-03T04:04:43.093344","MEAN_MOTION":15.30186131,"ECCENTRICITY":0.00015332,"INCLINATION":53.1614,"RA_OF_ASC_NODE":339.5875,"ARG_OF_PERICENTER":87.9875,"MEAN_ANOMALY":272.1301,"EPHEMERIS_TYPE":0,"CLASSIFICATION_TYPE":"U","NORAD_CAT_ID":60371,"ELEMENT_SET_NO":999,"REV_AT_EPOCH":8953,"BSTAR":6.4799907e-5,"MEAN_MOTION_DOT":1.559e-5,"MEAN_MOTION_DDOT":0},{"OBJECT_NAME":"STARLINK-32268","OBJECT_ID":"2024-138T","EPOCH":"2026-03-03T17:56:09.839904","MEAN_MOTION":15.30161827,"ECCENTRICITY":0.0001167,"INCLINATION":53.1606,"RA_OF_ASC_NODE":337.5033,"ARG_OF_PERICENTER":109.0445,"MEAN_ANOMALY":251.0682,"EPHEMERIS_TYPE":0,"CLASSIFICATION_TYPE":"U","NORAD_CAT_ID":60372,"ELEMENT_SET_NO":999,"REV_AT_EPOCH":8971,"BSTAR":0.00022009,"MEAN_MOTION_DOT":6.157e-5,"MEAN_MOTION_DDOT":0},{"OBJECT_NAME":"STARLINK-32223","OBJECT_ID":"2024-138U","EPOCH":"2026-03-03T04:54:52.205760","MEAN_MOTION":15.30192741,"ECCENTRICITY":9.767e-5,"INCLINATION":53.1623,"RA_OF_ASC_NODE":339.8005,"ARG_OF_PERICENTER":107.3746,"MEAN_ANOMALY":252.7362,"EPHEMERIS_TYPE":0,"CLASSIFICATION_TYPE":"U","NORAD_CAT_ID":60373,"ELEMENT_SET_NO":999,"REV_AT_EPOCH":8953,"BSTAR":6.604992e-6,"MEAN_MOTION_DOT":-1.63e-6,"MEAN_MOTION_DDOT":0},{"OBJECT_NAME":"STARLINK-32180","OBJECT_ID":"2024-138V","EPOCH":"2026-03-03T03:23:51.695520","MEAN_MOTION":15.30167365,"ECCENTRICITY":0.00010565,"INCLINATION":53.1612,"RA_OF_ASC_NODE":340.1141,"ARG_OF_PERICENTER":134.4592,"MEAN_ANOMALY":225.6496,"EPHEMERIS_TYPE":0,"CLASSIFICATION_TYPE":"U","NORAD_CAT_ID":60374,"ELEMENT_SET_NO":999,"REV_AT_EPOCH":8962,"BSTAR":4.1625858e-5,"MEAN_MOTION_DOT":8.73e-6,"MEAN_MOTION_DDOT":0}]
